{
    "links": {
        "self": "http://www.neowsapp.com/rest/v1/neo/3837778?api_key=iIulBulltgU6a56xZRHN4H3l9WmuAYTsLGpBGhQ2"
    },
    "id": "3837778",
    "neo_reference_id": "3837778",
    "name": "(2019 AK8)",
    "designation": "2019 AK8",
    "nasa_jpl_url": "http://ssd.jpl.nasa.gov/sbdb.cgi?sstr=3837778",
    "absolute_magnitude_h": 24.3,
    "estimated_diameter": {
        "kilometers": {
            "estimated_diameter_min": 0.0366906138,
            "estimated_diameter_max": 0.0820427065
        },
        "meters": {
            "estimated_diameter_min": 36.6906137531,
            "estimated_diameter_max": 82.0427064882
        },
        "miles": {
            "estimated_diameter_min": 0.0227984834,
            "estimated_diameter_max": 0.0509789586
        },
        "feet": {
            "estimated_diameter_min": 120.3760332259,
            "estimated_diameter_max": 269.1689931548
        }
    },
    "is_potentially_hazardous_asteroid": false,
    "close_approach_data": [
        {
            "close_approach_date": "1959-12-14",
            "close_approach_date_full": "1959-Dec-14 06:45",
            "epoch_date_close_approach": -317150100000,
            "relative_velocity": {
                "kilometers_per_second": "8.7477174344",
                "kilometers_per_hour": "31491.7827638175",
                "miles_per_hour": "19567.7691289954"
            },
            "miss_distance": {
                "astronomical": "0.0909967681",
                "lunar": "35.3977427909",
                "kilometers": "13612922.684643947",
                "miles": "8458677.9221305886"
            },
            "orbiting_body": "Earth"
        },
        {
            "close_approach_date": "2018-12-16",
            "close_approach_date_full": "2018-Dec-16 16:30",
            "epoch_date_close_approach": 1544977800000,
            "relative_velocity": {
                "kilometers_per_second": "9.2548935465",
                "kilometers_per_hour": "33317.6167672365",
                "miles_per_hour": "20702.2713740643"
            },
            "miss_distance": {
                "astronomical": "0.0724902632",
                "lunar": "28.1987123848",
                "kilometers": "10844388.970459384",
                "miles": "6738390.8429081392"
            },
            "orbiting_body": "Earth"
        }
    ],
    "orbital_data": {
        "orbit_id": "1",
        "orbit_determination_date": "2019-01-11 08:12:03",
        "first_observation_date": "2019-01-08",
        "last_observation_date": "2019-01-11",
        "data_arc_in_days": 3,
        "observations_used": 11,
        "orbit_uncertainty": "9",
        "minimum_orbit_intersection": ".0181959",
        "jupiter_tisserand_invariant": "4.992",
        "epoch_osculation": "2458492.5",
        "eccentricity": ".3785077235554209",
        "semi_major_axis": "1.27441775526541",
        "inclination": "7.093892680687989",
        "ascending_node_longitude": "98.27337488592595",
        "orbital_period": "525.4920462922336",
        "perihelion_distance": ".7920407918612904",
        "perihelion_argument": "277.6766458547879",
        "aphelion_distance": "1.75679471866953",
        "perihelion_time": "2458417.819303124508",
        "mean_anomaly": "51.16167040942417",
        "mean_motion": ".685072214774872",
        "equinox": "J2000",
        "orbit_class": {
            "orbit_class_type": "APO",
            "orbit_class_description": "Near-Earth asteroid orbits which cross the Earth’s orbit similar to that of 1862 Apollo",
            "orbit_class_range": "a (semi-major axis) > 1.0 AU; q (perihelion) < 1.017 AU"
        }
    },
    "is_sentry_object": false
}